[
    {
        "Altitude(m)": 703623.431051866,
        "Argument of Periapsis(deg)": 0.011390121186627068,
        "Eccentricity": 0.0,
        "Inclination(deg)": 45.0,
        "Latitude(deg)": 25.610862701979606,
        "Longitude(deg)": -94.24907379341168,
        "Mean Anomaly(deg)": 142.44231664748085,
        "RAAN(deg)": 214.98924805854182,
        "Satellite Name": "Constellation 1 954",
        "Satellite Number": 954,
        "Semi-Major Axis(m)": 7083131.272910544,
        "Time(s)": 190
    },
    {
        "Altitude(m)": 703618.4986458757,
        "Argument of Periapsis(deg)": 0.011450069192872472,
        "Eccentricity": 0.0,
        "Inclination(deg)": 45.0,
        "Latitude(deg)": 25.57291955495687,
        "Longitude(deg)": -94.20054001577934,
        "Mean Anomaly(deg)": 142.50301778773073,
        "RAAN(deg)": 214.98919146937624,
        "Satellite Name": "Constellation 1 954",
        "Satellite Number": 954,
        "Semi-Major Axis(m)": 7083131.272910544,
        "Time(s)": 191
    },
    {
        "Altitude(m)": 703613.575206983,
        "Argument of Periapsis(deg)": 0.01151001719911788,
        "Eccentricity": 0.0,
        "Inclination(deg)": 45.0,
        "Latitude(deg)": 25.534957299835984,
        "Longitude(deg)": -94.15203940786081,
        "Mean Anomaly(deg)": 142.5637189279806,
        "RAAN(deg)": 214.98913488021068,
        "Satellite Name": "Constellation 1 954",
        "Satellite Number": 954,
        "Semi-Major Axis(m)": 7083131.272910544,
        "Time(s)": 192
    },
    {
        "Altitude(m)": 703608.6607725276,
        "Argument of Periapsis(deg)": 0.011569965205363285,
        "Eccentricity": 0.0,
        "Inclination(deg)": 45.0,
        "Latitude(deg)": 25.496975980628285,
        "Longitude(deg)": -94.1035720770885,
        "Mean Anomaly(deg)": 142.6244200682306,
        "RAAN(deg)": 214.9890782910451,
        "Satellite Name": "Constellation 1 954",
        "Satellite Number": 954,
        "Semi-Major Axis(m)": 7083131.272910544,
        "Time(s)": 193
    },
    {
        "Altitude(m)": 703603.7553798165,
        "Argument of Periapsis(deg)": 0.01162991321160869,
        "Eccentricity": 0.0,
        "Inclination(deg)": 45.0,
        "Latitude(deg)": 25.45897564128073,
        "Longitude(deg)": -94.05513762660547,
        "Mean Anomaly(deg)": 142.68512120848047,
        "RAAN(deg)": 214.98902170187955,
        "Satellite Name": "Constellation 1 954",
        "Satellite Number": 954,
        "Semi-Major Axis(m)": 7083131.272910544,
        "Time(s)": 194
    },
    {
        "Altitude(m)": 703598.8590661329,
        "Argument of Periapsis(deg)": 0.011689861217854095,
        "Eccentricity": 0.0,
        "Inclination(deg)": 45.0,
        "Latitude(deg)": 25.420956325675995,
        "Longitude(deg)": -94.00673616384687,
        "Mean Anomaly(deg)": 142.7458223487303,
        "RAAN(deg)": 214.98896511271394,
        "Satellite Name": "Constellation 1 954",
        "Satellite Number": 954,
        "Semi-Major Axis(m)": 7083131.272910544,
        "Time(s)": 195
    },
    {
        "Altitude(m)": 703593.9718687292,
        "Argument of Periapsis(deg)": 0.0117498092240995,
        "Eccentricity": 0.0,
        "Inclination(deg)": 45.0,
        "Latitude(deg)": 25.382918077632667,
        "Longitude(deg)": -93.95836762815297,
        "Mean Anomaly(deg)": 142.8065234889802,
        "RAAN(deg)": 214.9889085235484,
        "Satellite Name": "Constellation 1 954",
        "Satellite Number": 954,
        "Semi-Major Axis(m)": 7083131.272910544,
        "Time(s)": 196
    },
    {
        "Altitude(m)": 703589.0938248306,
        "Argument of Periapsis(deg)": 0.011809757230344905,
        "Eccentricity": 0.0,
        "Inclination(deg)": 45.0,
        "Latitude(deg)": 25.344860940905395,
        "Longitude(deg)": -93.91003195886633,
        "Mean Anomaly(deg)": 142.86722462923012,
        "RAAN(deg)": 214.98885193438284,
        "Satellite Name": "Constellation 1 954",
        "Satellite Number": 954,
        "Semi-Major Axis(m)": 7083131.272910544,
        "Time(s)": 197
    },
    {
        "Altitude(m)": 703584.2249716315,
        "Argument of Periapsis(deg)": 0.011869705236590313,
        "Eccentricity": 0.0,
        "Inclination(deg)": 45.0,
        "Latitude(deg)": 25.30678495918494,
        "Longitude(deg)": -93.86172909533225,
        "Mean Anomaly(deg)": 142.92792576948003,
        "RAAN(deg)": 214.98879534521726,
        "Satellite Name": "Constellation 1 954",
        "Satellite Number": 954,
        "Semi-Major Axis(m)": 7083131.272910544,
        "Time(s)": 198
    },
    {
        "Altitude(m)": 703579.365346295,
        "Argument of Periapsis(deg)": 0.011929653242835719,
        "Eccentricity": 0.0,
        "Inclination(deg)": 45.0,
        "Latitude(deg)": 25.26869017609815,
        "Longitude(deg)": -93.81345897689887,
        "Mean Anomaly(deg)": 142.98862690972993,
        "RAAN(deg)": 214.9887387560517,
        "Satellite Name": "Constellation 1 954",
        "Satellite Number": 954,
        "Semi-Major Axis(m)": 7083131.272910544,
        "Time(s)": 199
    }
]